{
  "norad_id": 63579,
  "name": "STARLINK-33755",
  "history": [
    {
      "epoch": "2026-04-14T09:47:02.695776Z",
      "apogee_km": 483.841200394485,
      "perigee_km": 482.24378058550974,
      "latitude_deg": 2.171174293742364e-06,
      "longitude_deg": 130.49723889579232,
      "height_km": 482.73305385893843,
      "semi_major_axis_km": 6861.179490489997,
      "eccentricity": 0.00011641,
      "inclination_deg": 43.0006,
      "raan_deg": 119.843,
      "arg_perigee_deg": 276.1821,
      "mean_anomaly_deg": 83.8898,
      "mean_motion_rev_day": 15.27582206
    },
    {
      "epoch": "2026-04-15T17:10:10.119360Z",
      "apogee_km": 484.2802749282537,
      "perigee_km": 481.7443941342108,
      "latitude_deg": -1.351667727581706e-05,
      "longitude_deg": 11.039840501537041,
      "height_km": 482.50435561257706,
      "semi_major_axis_km": 6861.149334531232,
      "eccentricity": 0.0001848,
      "inclination_deg": 42.9998,
      "raan_deg": 112.4555,
      "arg_perigee_deg": 282.9905,
      "mean_anomaly_deg": 77.074,
      "mean_motion_rev_day": 15.27592277
    },
    {
      "epoch": "2026-04-16T16:42:31.180608Z",
      "apogee_km": 483.74894335108183,
      "perigee_km": 482.347889289068,
      "latitude_deg": 1.5216169750429772e-05,
      "longitude_deg": 11.446597908381893,
      "height_km": 482.7801449148653,
      "semi_major_axis_km": 6861.185416320074,
      "eccentricity": 0.0001021,
      "inclination_deg": 42.9972,
      "raan_deg": 106.9167,
      "arg_perigee_deg": 273.629,
      "mean_anomaly_deg": 86.4445,
      "mean_motion_rev_day": 15.27580227
    },
    {
      "epoch": "2026-04-17T16:14:52.253088Z",
      "apogee_km": 483.7936275804668,
      "perigee_km": 482.2985757826109,
      "latitude_deg": -8.24803580371623e-06,
      "longitude_deg": 11.852252189906569,
      "height_km": 482.76134124049713,
      "semi_major_axis_km": 6861.183101681539,
      "eccentricity": 0.00010895,
      "inclination_deg": 42.998,
      "raan_deg": 101.3769,
      "arg_perigee_deg": 274.6793,
      "mean_anomaly_deg": 85.3934,
      "mean_motion_rev_day": 15.27581
    },
    {
      "epoch": "2026-04-18T07:56:25.937664Z",
      "apogee_km": 483.753108143248,
      "perigee_km": 482.29126956646905,
      "latitude_deg": -3.843655452054705e-05,
      "longitude_deg": 132.12459208113853,
      "height_km": 482.77561777937547,
      "semi_major_axis_km": 6861.159188854858,
      "eccentricity": 0.00010653,
      "inclination_deg": 42.9988,
      "raan_deg": 97.6841,
      "arg_perigee_deg": 271.7923,
      "mean_anomaly_deg": 88.2806,
      "mean_motion_rev_day": 15.27588986
    },
    {
      "epoch": "2026-04-19T15:19:33.519360Z",
      "apogee_km": 483.5052108740956,
      "perigee_km": 482.5638581395615,
      "latitude_deg": -1.572575964464267e-05,
      "longitude_deg": 12.666670900380872,
      "height_km": 482.69834103449006,
      "semi_major_axis_km": 6861.171534506828,
      "eccentricity": 6.86e-05,
      "inclination_deg": 42.9998,
      "raan_deg": 90.2967,
      "arg_perigee_deg": 283.7967,
      "mean_anomaly_deg": 76.2808,
      "mean_motion_rev_day": 15.27584863
    },
    {
      "epoch": "2026-04-20T07:01:06.039264Z",
      "apogee_km": 483.84791566832064,
      "perigee_km": 481.9762214824141,
      "latitude_deg": 2.412509282031975e-06,
      "longitude_deg": 132.94502694493207,
      "height_km": 482.7742554866861,
      "semi_major_axis_km": 6861.0490685753675,
      "eccentricity": 0.0001364,
      "inclination_deg": 42.9989,
      "raan_deg": 86.605,
      "arg_perigee_deg": 264.7483,
      "mean_anomaly_deg": 95.3213,
      "mean_motion_rev_day": 15.27625763
    },
    {
      "epoch": "2026-04-21T06:33:28.025856Z",
      "apogee_km": 484.0216372930381,
      "perigee_km": 482.2010736543971,
      "latitude_deg": 1.5174949805697328e-05,
      "longitude_deg": 133.35049699523498,
      "height_km": 482.77297915598746,
      "semi_major_axis_km": 6861.248355473717,
      "eccentricity": 0.00013267,
      "inclination_deg": 43.0013,
      "raan_deg": 81.0688,
      "arg_perigee_deg": 277.2686,
      "mean_anomaly_deg": 82.8015,
      "mean_motion_rev_day": 15.27559208
    },
    {
      "epoch": "2026-04-22T13:56:35.929824Z",
      "apogee_km": 483.36278705165023,
      "perigee_km": 482.4667336917455,
      "latitude_deg": 6.118812865124591e-06,
      "longitude_deg": 13.892592953766133,
      "height_km": 482.7179842387945,
      "semi_major_axis_km": 6861.051760371698,
      "eccentricity": 6.53e-05,
      "inclination_deg": 42.9989,
      "raan_deg": 73.6828,
      "arg_perigee_deg": 266.5051,
      "mean_anomaly_deg": 93.5726,
      "mean_motion_rev_day": 15.27624864
    },
    {
      "epoch": "2026-04-23T13:28:58.650816Z",
      "apogee_km": 483.7013285789981,
      "perigee_km": 482.3964682448377,
      "latitude_deg": 9.500696461381272e-06,
      "longitude_deg": 14.289784887059868,
      "height_km": 482.86785768432844,
      "semi_major_axis_km": 6861.185898411917,
      "eccentricity": 9.509e-05,
      "inclination_deg": 42.9993,
      "raan_deg": 68.1414,
      "arg_perigee_deg": 266.2448,
      "mean_anomaly_deg": 93.8295,
      "mean_motion_rev_day": 15.27580066
    },
    {
      "epoch": "2026-04-24T06:44:42.237888Z",
      "apogee_km": 483.8867501732648,
      "perigee_km": 482.1645983420267,
      "latitude_deg": 2.107549024977917e-05,
      "longitude_deg": 110.58905383236876,
      "height_km": 482.70612284501976,
      "semi_major_axis_km": 6861.162674257645,
      "eccentricity": 0.0001255,
      "inclination_deg": 43.0015,
      "raan_deg": 64.0812,
      "arg_perigee_deg": 276.4214,
      "mean_anomaly_deg": 83.6495,
      "mean_motion_rev_day": 15.27587822
    },
    {
      "epoch": "2026-04-25T06:17:00.930048Z",
      "apogee_km": 483.7763806045632,
      "perigee_km": 481.98977097682655,
      "latitude_deg": 4.199752264202181e-05,
      "longitude_deg": 111.00569858426724,
      "height_km": 482.5577886104212,
      "semi_major_axis_km": 6861.020075790694,
      "eccentricity": 0.0001302,
      "inclination_deg": 43.0009,
      "raan_deg": 58.5424,
      "arg_perigee_deg": 276.5568,
      "mean_anomaly_deg": 83.5136,
      "mean_motion_rev_day": 15.27635446
    },
    {
      "epoch": "2026-04-26T19:56:45.613536Z",
      "apogee_km": 483.27955288354315,
      "perigee_km": 482.7611238350564,
      "latitude_deg": 3.1382157976662797e-05,
      "longitude_deg": -104.33773381548826,
      "height_km": 482.7657092955649,
      "semi_major_axis_km": 6861.1573383592995,
      "eccentricity": 3.778e-05,
      "inclination_deg": 42.9969,
      "raan_deg": 49.6819,
      "arg_perigee_deg": 276.6603,
      "mean_anomaly_deg": 83.4206,
      "mean_motion_rev_day": 15.27589604
    },
    {
      "epoch": "2026-04-27T19:29:07.104192Z",
      "apogee_km": 483.54433891987264,
      "perigee_km": 482.5535836670615,
      "latitude_deg": 1.7849101532700716e-05,
      "longitude_deg": -103.9340167108612,
      "height_km": 482.89725672182664,
      "semi_major_axis_km": 6861.185961293467,
      "eccentricity": 7.22e-05,
      "inclination_deg": 42.9986,
      "raan_deg": 44.1419,
      "arg_perigee_deg": 261.6005,
      "mean_anomaly_deg": 98.4765,
      "mean_motion_rev_day": 15.27580045
    },
    {
      "epoch": "2026-04-28T19:01:28.394400Z",
      "apogee_km": 484.12352369951896,
      "perigee_km": 481.9526479023707,
      "latitude_deg": -4.49272357237258e-05,
      "longitude_deg": -103.52881467812853,
      "height_km": 482.74654518740545,
      "semi_major_axis_km": 6861.1750858009445,
      "eccentricity": 0.0001582,
      "inclination_deg": 42.9997,
      "raan_deg": 38.6026,
      "arg_perigee_deg": 273.6113,
      "mean_anomaly_deg": 86.4557,
      "mean_motion_rev_day": 15.27583677
    }
  ]
}